NORAD_CAT_ID,OBJECT_NAME,OBJECT_TYPE,EPOCH,MEAN_MOTION,ECCENTRICITY,INCLINATION,RA_OF_ASC_NODE,ARG_OF_PERICENTER,MEAN_ANOMALY,BSTAR,MEAN_MOTION_DOT,MEAN_MOTION_DDOT,TLE_LINE0,TLE_LINE1,TLE_LINE2,SEMIMAJOR_AXIS,PERIOD,APOGEE,PERIGEE,DECAYED
53840.0,STARLINK-4766,PAYLOAD,2023-06-30 13:45:59,15.08846077,0.0001021,53.2149,27.5605,89.7192,270.3918,3.0152e-05,1.92e-06,0.0,0 STARLINK-4766,1 53840U 22114Y   23181.57360649  .00000192  00000-0  30152-4 0  9992,2 53840  53.2149  27.5605 0001021  89.7192 270.3918 15.08846077 44016,6917.862,95.437,540.433,539.021,0.0
53840.0,STARLINK-4766,PAYLOAD,2023-07-01 18:22:56,15.08837706,0.0001234,53.2169,22.2052,94.6114,265.5019,5.1158e-05,5.26e-06,0.0,0 STARLINK-4766,1 53840U 22114Y   23182.76593109  .00000526  00000-0  51158-4 0  9993,2 53840  53.2169  22.2052 0001234  94.6114 265.5019 15.08837706 44197,6917.887,95.438,540.606,538.899,0.0
53840.0,STARLINK-4766,PAYLOAD,2023-07-03 00:35:15,15.08853405,0.0001155,53.2169,16.5553,78.1865,281.9257,0.00045324,6.935e-05,0.0,0 STARLINK-4766,1 53840U 22114Y   23184.02448818  .00006935  00000-0  45324-3 0  9997,2 53840  53.2169  16.5553 0001155  78.1865 281.9257 15.08853405 44382,6917.839,95.437,540.503,538.905,0.0
53840.0,STARLINK-4766,PAYLOAD,2023-07-03 05:21:25,15.08836978,0.000103,53.2176,15.6634,99.9456,260.1653,3.7721e-05,3.13e-06,0.0,0 STARLINK-4766,1 53840U 22114Y   23184.22321157  .00000313  00000-0  37721-4 0  9992,2 53840  53.2176  15.6634 0001030  99.9456 260.1653 15.08836978 44418,6917.89,95.438,540.467,539.042,0.0
53840.0,STARLINK-4766,PAYLOAD,2023-07-03 19:39:53,15.08850352,0.0001044,53.2166,12.9871,81.6917,278.4193,0.00029946,4.483e-05,0.0,0 STARLINK-4766,1 53840U 22114Y   23184.81936829  .00004483  00000-0  29946-3 0  9996,2 53840  53.2166  12.9871 0001044  81.6917 278.4193 15.08850352 44508,6917.849,95.437,540.436,538.992,0.0
53840.0,STARLINK-4766,PAYLOAD,2023-07-04 11:33:45,15.08840225,0.0001015,53.2167,10.0142,82.1532,277.9575,8.8102e-05,1.115e-05,0.0,0 STARLINK-4766,1 53840U 22114Y   23185.48177084  .00001115  00000-0  88102-4 0  9999,2 53840  53.2167  10.0142 0001015  82.1532 277.9575 15.08840225 44603,6917.88,95.438,540.447,539.043,0.0
53840.0,STARLINK-4766,PAYLOAD,2023-07-05 14:35:18,15.08836515,0.000104,53.2173,4.9594,90.0117,270.0995,4.5094e-05,4.3e-06,0.0,0 STARLINK-4766,1 53840U 22114Y   23186.60785469  .00000430  00000-0  45094-4 0  9998,2 53840  53.2173   4.9594 0001040  90.0117 270.0995 15.08836515 44773,6917.891,95.438,540.476,539.037,0.0
53840.0,STARLINK-4766,PAYLOAD,2023-07-06 17:36:51,15.08845243,9.95e-05,53.2173,359.9036,84.416,275.6946,0.00024683,3.643e-05,0.0,0 STARLINK-4766,1 53840U 22114Y   23187.73393433  .00003643  00000-0  24683-3 0  9998,2 53840  53.2173 359.9036 0000995  84.4160 275.6946 15.08845243 44944,6917.864,95.437,540.418,539.041,0.0
53840.0,STARLINK-4766,PAYLOAD,2023-07-07 11:06:06,15.08843326,0.0001109,53.2177,356.6328,84.1843,275.9276,0.00017368,2.478e-05,0.0,0 STARLINK-4766,1 53840U 22114Y   23188.46257641  .00002478  00000-0  17368-3 0  9996,2 53840  53.2177 356.6328 0001109  84.1843 275.9276 15.08843326 45051,6917.87,95.437,540.502,538.968,0.0
53840.0,STARLINK-4766,PAYLOAD,2023-07-08 17:18:25,15.08845384,9.15e-05,53.2173,350.983,91.4198,268.6899,0.00015323,2.152e-05,0.0,0 STARLINK-4766,1 53840U 22114Y   23189.72113327  .00002152  00000-0  15323-3 0  9996,2 53840  53.2173 350.9830 0000915  91.4198 268.6899 15.08845384 45247,6917.864,95.437,540.362,539.096,0.0
53840.0,STARLINK-4766,PAYLOAD,2023-07-08 22:04:34,15.08852923,8.94e-05,53.2171,350.0897,92.4594,267.65,0.00020483,2.975e-05,0.0,0 STARLINK-4766,1 53840U 22114Y   23189.91984914  .00002975  00000-0  20483-3 0  9991,2 53840  53.2171 350.0897 0000894  92.4594 267.6500 15.08852923 45274,6917.841,95.437,540.324,539.087,0.0
53840.0,STARLINK-4766,PAYLOAD,2023-07-09 17:09:13,15.08838539,0.0001062,53.2175,346.5218,91.7557,268.3557,8.0323e-05,9.91e-06,0.0,0 STARLINK-4766,1 53840U 22114Y   23190.71473799  .00000991  00000-0  80323-4 0  9991,2 53840  53.2175 346.5218 0001062  91.7557 268.3557 15.08838539 45394,6917.885,95.438,540.485,539.015,0.0
53840.0,STARLINK-4766,PAYLOAD,2023-07-11 02:32:19,15.08833525,0.0001066,53.218,340.2757,101.5357,258.5755,-3.017e-05,-7.68e-06,0.0,0 STARLINK-4766,1 53840U 22114Y   23192.10577881 -.00000768  00000-0 -30170-4 0  9992,2 53840  53.2180 340.2757 0001066 101.5357 258.5755 15.08833525 45606,6917.9,95.438,540.503,539.028,0.0
53840.0,STARLINK-4766,PAYLOAD,2023-07-11 21:36:56,15.08853802,0.0001,53.2171,336.7086,93.6868,266.4239,0.00037923,5.755e-05,0.0,0 STARLINK-4766,1 53840U 22114Y   23192.90065355  .00005755  00000-0  37923-3 0  9999,2 53840  53.2171 336.7086 0001000  93.6868 266.4239 15.08853802 45725,6917.838,95.437,540.395,539.011,0.0
53840.0,STARLINK-4766,PAYLOAD,2023-07-12 16:41:34,15.08845256,0.0001263,53.2171,333.1401,85.8753,274.2383,0.00033567,5.059e-05,0.0,0 STARLINK-4766,1 53840U 22114Y   23193.69553760  .00005059  00000-0  33567-3 0  9995,2 53840  53.2171 333.1401 0001263  85.8753 274.2383 15.08845256 45848,6917.864,95.437,540.603,538.856,0.0
53840.0,STARLINK-4766,PAYLOAD,2023-07-13 16:32:21,15.08845172,9.48e-05,53.2166,328.6796,95.1223,264.9878,0.00035929,5.436e-05,0.0,0 STARLINK-4766,1 53840U 22114Y   23194.68914033  .00005436  00000-0  35929-3 0  9992,2 53840  53.2166 328.6796 0000948  95.1223 264.9878 15.08845172 45991,6917.865,95.437,540.385,539.074,0.0
53840.0,STARLINK-4766,PAYLOAD,2023-07-14 08:26:13,15.08834665,6.06e-05,53.2149,325.7068,88.1882,271.9179,0.00020514,2.978e-05,0.0,0 STARLINK-4766,1 53840U 22114Y   23195.35154342  .00002978  00000-0  20514-3 0  9998,2 53840  53.2149 325.7068 0000606  88.1882 271.9179 15.08834665 46095,6917.897,95.438,540.181,539.342,0.0
53840.0,STARLINK-4766,PAYLOAD,2023-07-14 16:23:08,15.08859847,8.47e-05,53.2156,324.2197,89.3111,270.7978,0.0011685,0.00018368,0.0,0 STARLINK-4766,1 53840U 22114Y   23195.68274048  .00018368  00000-0  11685-2 0  9998,2 53840  53.2156 324.2197 0000847  89.3111 270.7978 15.08859847 46144,6917.82,95.436,540.271,539.099,0.0
53840.0,STARLINK-4766,PAYLOAD,2023-07-15 17:49:19,15.08841588,0.0001331,53.2175,319.4598,65.433,294.6801,0.0013714,0.00021606,0.0,0 STARLINK-4766,1 53840U 22114Y   23196.74258839  .00021606  00000-0  13714-2 0  9990,2 53840  53.2175 319.4598 0001331  65.4330 294.6801 15.08841588 46304,6917.876,95.437,540.661,538.82,0.0
53840.0,STARLINK-4766,PAYLOAD,2023-07-16 01:46:15,15.08841702,0.0001271,53.2172,317.9801,49.627,310.4833,0.00070044,0.00010878,0.0,0 STARLINK-4766,1 53840U 22114Y   23197.07379056  .00010878  00000-0  70044-3 0  9991,2 53840  53.2172 317.9801 0001271  49.6270 310.4833 15.08841702 46356,6917.875,95.437,540.619,538.861,0.0
53840.0,STARLINK-4766,PAYLOAD,2023-07-16 17:40:06,15.08846084,0.0001226,53.217,315.0005,93.4964,266.6169,0.00054998,8.477e-05,0.0,0 STARLINK-4766,1 53840U 22114Y   23197.73618888  .00008477  00000-0  54998-3 0  9995,2 53840  53.2170 315.0005 0001226  93.4964 266.6169 15.08846084 46459,6917.862,95.437,540.575,538.879,0.0
53840.0,STARLINK-4766,PAYLOAD,2023-07-17 14:20:07,15.08854195,0.0001201,53.218,311.1356,91.9224,268.1906,0.00053158,8.186e-05,0.0,0 STARLINK-4766,1 53840U 22114Y   23198.59730598  .00008186  00000-0  53158-3 0  9997,2 53840  53.2180 311.1356 0001201  91.9224 268.1906 15.08854195 46583,6917.837,95.437,540.533,538.871,0.0
53840.0,STARLINK-4766,PAYLOAD,2023-07-18 11:00:07,15.0884743,0.0001256,53.2183,307.2707,86.2902,273.8234,0.000258,3.821e-05,0.0,0 STARLINK-4766,1 53840U 22114Y   23199.45842461  .00003821  00000-0  25800-3 0  9990,2 53840  53.2183 307.2707 0001256  86.2902 273.8234 15.08847430 46718,6917.858,95.437,540.592,538.854,0.0
53840.0,STARLINK-4766,PAYLOAD,2023-07-19 07:40:09,15.08822527,0.0001326,53.2173,303.4053,110.5486,249.5648,-3.7571e-05,-8.85e-06,0.0,0 STARLINK-4766,1 53840U 22114Y   23200.31954976 -.00000885  00000-0 -37571-4 0  9991,2 53840  53.2173 303.4053 0001326 110.5486 249.5648 15.08822527 46848,6917.934,95.439,540.716,538.881,0.0
53840.0,STARLINK-4766,PAYLOAD,2023-07-19 17:12:28,15.08830851,0.0001633,53.2176,301.6212,118.2628,241.8529,0.00076473,0.00011901,0.0,0 STARLINK-4766,1 53840U 22114Y   23200.71699418  .00011901  00000-0  76473-3 0  9994,2 53840  53.2176 301.6212 0001633 118.2628 241.8529 15.08830851 46901,6917.908,95.438,540.903,538.644,0.0
53840.0,STARLINK-4766,PAYLOAD,2023-07-20 18:38:38,15.08862098,0.0001148,53.2162,296.8637,94.0474,266.0649,0.0010981,0.00017242,0.0,0 STARLINK-4766,1 53840U 22114Y   23201.77683130  .00017242  00000-0  10981-2 0  9990,2 53840  53.2162 296.8637 0001148  94.0474 266.0649 15.08862098 47061,6917.813,95.436,540.472,538.884,0.0
53840.0,STARLINK-4766,PAYLOAD,2023-07-21 05:46:20,15.08851775,0.0001258,53.2163,294.7829,97.8555,262.258,0.00045981,7.04e-05,0.0,0 STARLINK-4766,1 53840U 22114Y   23202.24051131  .00007040  00000-0  45981-3 0  9997,2 53840  53.2163 294.7829 0001258  97.8555 262.2580 15.08851775 47135,6917.844,95.437,540.58,538.839,0.0
53840.0,STARLINK-4766,PAYLOAD,2023-07-24 05:18:41,15.08842339,0.0001152,53.2148,281.401,96.8921,263.2202,0.00030598,4.585e-05,0.0,0 STARLINK-4766,1 53840U 22114Y   23205.22131608  .00004585  00000-0  30598-3 0  9995,2 53840  53.2148 281.4010 0001152  96.8921 263.2202 15.08842339 48120,6917.873,95.437,540.535,538.941,0.0
53840.0,STARLINK-4766,PAYLOAD,2023-07-25 11:31:01,15.08843294,0.0001047,53.2157,275.7506,86.7787,273.3325,0.00013324,1.834e-05,0.0,0 STARLINK-4766,1 53840U 22114Y   23206.47987532  .00001834  00000-0  13324-3 0  9990,2 53840  53.2157 275.7506 0001047  86.7787 273.3325 15.08843294 48317,6917.87,95.437,540.46,539.011,0.0
53840.0,STARLINK-4766,PAYLOAD,2023-07-26 12:57:11,15.08845448,0.0001295,53.2153,270.9951,79.6249,280.4889,0.00014196,1.972e-05,0.0,0 STARLINK-4766,1 53840U 22114Y   23207.53971405  .00001972  00000-0  14196-3 0  9991,2 53840  53.2153 270.9951 0001295  79.6249 280.4889 15.08845448 48477,6917.864,95.437,540.625,538.833,0.0
